[{"OBJECT_NAME":"STARLINK-31196","OBJECT_ID":"2024-019R","EPOCH":"2026-03-09T22:04:18.582528","MEAN_MOTION":15.27578344,"ECCENTRICITY":6.141e-5,"INCLINATION":42.998,"RA_OF_ASC_NODE":247.9598,"ARG_OF_PERICENTER":273.4281,"MEAN_ANOMALY":86.6501,"EPHEMERIS_TYPE":0,"CLASSIFICATION_TYPE":"U","NORAD_CAT_ID":58868,"ELEMENT_SET_NO":999,"REV_AT_EPOCH":11909,"BSTAR":1.7753529e-5,"MEAN_MOTION_DOT":2.27e-6,"MEAN_MOTION_DDOT":0},{"OBJECT_NAME":"FLOCK 4G-36","OBJECT_ID":"2025-009BU","EPOCH":"2026-03-09T16:58:27.533568","MEAN_MOTION":15.27209548,"ECCENTRICITY":0.00034736,"INCLINATION":97.4053,"RA_OF_ASC_NODE":151.0513,"ARG_OF_PERICENTER":324.2456,"MEAN_ANOMALY":35.855,"EPHEMERIS_TYPE":0,"CLASSIFICATION_TYPE":"U","NORAD_CAT_ID":62675,"ELEMENT_SET_NO":999,"REV_AT_EPOCH":6370,"BSTAR":0.00051121743,"MEAN_MOTION_DOT":0.00013573,"MEAN_MOTION_DDOT":0}]
